{
  "type": "FeatureCollection",
  "features": [
    {
      "type": "Feature",
      "properties": {
        "norad_id": 43823,
        "name": "GEO-KOMPSAT-2A",
        "group": "weather",
        "lat": 0.024973596529754317,
        "lon": -144.39307389526607,
        "alt_km": 35788.04699317877,
        "timestamp": "2025-12-26T23:26:41.800209+00:00",
        "meta_object_name": "GEO-KOMPSAT-2A",
        "meta_object_id": "2018-100A",
        "meta_epoch": "2025-12-25T12:13:38.614080",
        "meta_mean_motion": 1.00268534,
        "meta_eccentricity": 2.51e-05,
        "meta_inclination": 0.0434,
        "meta_ra_of_asc_node": 172.7377,
        "meta_arg_of_pericenter": 259.9479,
        "meta_mean_anomaly": 333.2359,
        "meta_ephemeris_type": 0,
        "meta_classification_type": "U",
        "meta_norad_cat_id": 43823,
        "meta_element_set_no": 999,
        "meta_rev_at_epoch": 2588,
        "meta_bstar": 0,
        "meta_mean_motion_dot": -3.22e-06,
        "meta_mean_motion_ddot": 0,
        "tle_line1": "1 43823U 18100A   25359.50947470 -.00000322  00000+0  00000+0 0  9996",
        "tle_line2": "2 43823   0.0434 172.7377 0000251 259.9479 333.2359  1.00268534 25880"
      },
      "geometry": {
        "type": "Point",
        "coordinates": [
          -144.39307389526607,
          0.024973596529754317
        ]
      }
    },
    {
      "type": "Feature",
      "properties": {
        "norad_id": 44387,
        "name": "METEOR-M2 2",
        "group": "weather",
        "lat": -72.02618635079108,
        "lon": 132.00160593756422,
        "alt_km": 819.0193972989846,
        "timestamp": "2025-12-26T23:26:41.800220+00:00",
        "meta_object_name": "METEOR-M2 2",
        "meta_object_id": "2019-038A",
        "meta_epoch": "2025-12-26T18:52:57.948384",
        "meta_mean_motion": 14.24297252,
        "meta_eccentricity": 0.0001854,
        "meta_inclination": 98.8991,
        "meta_ra_of_asc_node": 340.6882,
        "meta_arg_of_pericenter": 122.5542,
        "meta_mean_anomaly": 237.5815,
        "meta_ephemeris_type": 0,
        "meta_classification_type": "U",
        "meta_norad_cat_id": 44387,
        "meta_element_set_no": 999,
        "meta_rev_at_epoch": 33675,
        "meta_bstar": 8.9593e-05,
        "meta_mean_motion_dot": 1.61e-06,
        "meta_mean_motion_ddot": 0,
        "tle_line1": "1 44387U 19038A   25360.78678181  .00000161  00000+0  89593-4 0  9994",
        "tle_line2": "2 44387  98.8991 340.6882 0001854 122.5542 237.5815 14.24297252336755"
      },
      "geometry": {
        "type": "Point",
        "coordinates": [
          132.00160593756422,
          -72.02618635079108
        ]
      }
    },
    {
      "type": "Feature",
      "properties": {
        "norad_id": 47719,
        "name": "ARKTIKA-M 1",
        "group": "weather",
        "lat": 16.750297532030793,
        "lon": -106.65121850677242,
        "alt_km": 10047.810075161371,
        "timestamp": "2025-12-26T23:26:41.800231+00:00",
        "meta_object_name": "ARKTIKA-M 1",
        "meta_object_id": "2021-016A",
        "meta_epoch": "2025-12-26T00:48:12.401568",
        "meta_mean_motion": 2.00630537,
        "meta_eccentricity": 0.72107999,
        "meta_inclination": 63.1768,
        "meta_ra_of_asc_node": 82.1795,
        "meta_arg_of_pericenter": 269.1717,
        "meta_mean_anomaly": 15.5344,
        "meta_ephemeris_type": 0,
        "meta_classification_type": "U",
        "meta_norad_cat_id": 47719,
        "meta_element_set_no": 999,
        "meta_rev_at_epoch": 3531,
        "meta_bstar": 0,
        "meta_mean_motion_dot": -4.1e-07,
        "meta_mean_motion_ddot": 0,
        "tle_line1": "1 47719U 21016A   25360.03347687 -.00000041  00000+0  00000+0 0  9996",
        "tle_line2": "2 47719  63.1768  82.1795 7210799 269.1717  15.5344  2.00630537 35311"
      },
      "geometry": {
        "type": "Point",
        "coordinates": [
          -106.65121850677242,
          16.750297532030793
        ]
      }
    },
    {
      "type": "Feature",
      "properties": {
        "norad_id": 49008,
        "name": "FENGYUN 3E",
        "group": "weather",
        "lat": -12.509873726816187,
        "lon": 3.2868145388008205,
        "alt_km": 830.8756688378799,
        "timestamp": "2025-12-26T23:26:41.800242+00:00",
        "meta_object_name": "FENGYUN 3E",
        "meta_object_id": "2021-062A",
        "meta_epoch": "2025-12-26T18:25:50.637216",
        "meta_mean_motion": 14.19882078,
        "meta_eccentricity": 0.0001063,
        "meta_inclination": 98.7482,
        "meta_ra_of_asc_node": 1.1225,
        "meta_arg_of_pericenter": 184.7318,
        "meta_mean_anomaly": 175.3848,
        "meta_ephemeris_type": 0,
        "meta_classification_type": "U",
        "meta_norad_cat_id": 49008,
        "meta_element_set_no": 999,
        "meta_rev_at_epoch": 23211,
        "meta_bstar": 8.2193e-05,
        "meta_mean_motion_dot": 1.3e-06,
        "meta_mean_motion_ddot": 0,
        "tle_line1": "1 49008U 21062A   25360.76794719  .00000130  00000+0  82193-4 0  9998",
        "tle_line2": "2 49008  98.7482   1.1225 0001063 184.7318 175.3848 14.19882078232117"
      },
      "geometry": {
        "type": "Point",
        "coordinates": [
          3.2868145388008205,
          -12.509873726816187
        ]
      }
    },
    {
      "type": "Feature",
      "properties": {
        "norad_id": 51850,
        "name": "GOES 18",
        "group": "weather",
        "lat": 0.01373233124584591,
        "lon": -49.631956110889604,
        "alt_km": 35786.38667903519,
        "timestamp": "2025-12-26T23:26:41.800255+00:00",
        "meta_object_name": "GOES 18",
        "meta_object_id": "2022-021A",
        "meta_epoch": "2025-12-26T13:25:07.004640",
        "meta_mean_motion": 1.00266539,
        "meta_eccentricity": 2.67e-05,
        "meta_inclination": 0.0396,
        "meta_ra_of_asc_node": 207.2899,
        "meta_arg_of_pericenter": 107.2467,
        "meta_mean_anomaly": 205.0399,
        "meta_ephemeris_type": 0,
        "meta_classification_type": "U",
        "meta_norad_cat_id": 51850,
        "meta_element_set_no": 999,
        "meta_rev_at_epoch": 486,
        "meta_bstar": 0,
        "meta_mean_motion_dot": 1.19e-06,
        "meta_mean_motion_ddot": 0,
        "tle_line1": "1 51850U 22021A   25360.55910885  .00000119  00000+0  00000+0 0  9992",
        "tle_line2": "2 51850   0.0396 207.2899 0000267 107.2467 205.0399  1.00266539  4866"
      },
      "geometry": {
        "type": "Point",
        "coordinates": [
          -49.631956110889604,
          0.01373233124584591
        ]
      }
    },
    {
      "type": "Feature",
      "properties": {
        "norad_id": 54234,
        "name": "NOAA 21 (JPSS-2)",
        "group": "weather",
        "lat": -24.119967971474445,
        "lon": -58.93821953431927,
        "alt_km": 831.4496444750384,
        "timestamp": "2025-12-26T23:26:41.800265+00:00",
        "meta_object_name": "NOAA 21 (JPSS-2)",
        "meta_object_id": "2022-150A",
        "meta_epoch": "2025-12-26T13:24:35.195616",
        "meta_mean_motion": 14.19527935,
        "meta_eccentricity": 0.00015759,
        "meta_inclination": 98.7479,
        "meta_ra_of_asc_node": 296.6957,
        "meta_arg_of_pericenter": 9.0885,
        "meta_mean_anomaly": 351.0319,
        "meta_ephemeris_type": 0,
        "meta_classification_type": "U",
        "meta_norad_cat_id": 54234,
        "meta_element_set_no": 999,
        "meta_rev_at_epoch": 16205,
        "meta_bstar": 7.3003511e-05,
        "meta_mean_motion_dot": 1.1e-06,
        "meta_mean_motion_ddot": 0,
        "tle_line1": "1 54234U 22150A   25360.55874069  .00000110  00000+0  73004-4 0  9997",
        "tle_line2": "2 54234  98.7479 296.6957 0001575   9.0885 351.0319 14.19527935162058"
      },
      "geometry": {
        "type": "Point",
        "coordinates": [
          -58.93821953431927,
          -24.119967971474445
        ]
      }
    },
    {
      "type": "Feature",
      "properties": {
        "norad_id": 54743,
        "name": "METEOSAT-12 (MTG-I1)",
        "group": "weather",
        "lat": 0.6328200568616619,
        "lon": 87.05302575912322,
        "alt_km": 35793.47354930024,
        "timestamp": "2025-12-26T23:26:41.800275+00:00",
        "meta_object_name": "METEOSAT-12 (MTG-I1)",
        "meta_object_id": "2022-170C",
        "meta_epoch": "2025-12-26T08:51:38.739168",
        "meta_mean_motion": 1.00270911,
        "meta_eccentricity": 0.00017146,
        "meta_inclination": 0.7011,
        "meta_ra_of_asc_node": 25.8801,
        "meta_arg_of_pericenter": 242.0428,
        "meta_mean_anomaly": 319.779,
        "meta_ephemeris_type": 0,
        "meta_classification_type": "U",
        "meta_norad_cat_id": 54743,
        "meta_element_set_no": 999,
        "meta_rev_at_epoch": 1124,
        "meta_bstar": 0,
        "meta_mean_motion_dot": 1.4e-07,
        "meta_mean_motion_ddot": 0,
        "tle_line1": "1 54743U 22170C   25360.36919837  .00000014  00000+0  00000+0 0  9990",
        "tle_line2": "2 54743   0.7011  25.8801 0001714 242.0428 319.7790  1.00270911 11248"
      },
      "geometry": {
        "type": "Point",
        "coordinates": [
          87.05302575912322,
          0.6328200568616619
        ]
      }
    }
  ]
}